IRS-P5 (CARTOSAT-1)     
1 28649U 05017A   26171.03106645  .00000963  00000+0  10255-3 0  9997
2 28649  97.5305 193.9666 0002525  76.4954 283.6546 14.91055438144248
KAZEOSAT 1              
1 39731U 14024A   26172.53169137  .00000393  00000+0  13252-3 0  9997
2 39731  98.3200 244.8715 0001291  77.1135 283.0199 14.42082456639180
KAZEOSAT 2              
1 40010U 14033A   26172.54108969  .00000113  00000+0  18924-4 0  9998
2 40010  97.5407  11.9225 0007483 313.6499  46.4096 14.85473699649606
JASON-3                 
1 41240U 16002A   26171.42010391 -.00000038  00000+0  96061-4 0  9994
2 41240  66.0406 119.0381 0008478 272.6497  87.3551 12.87628140487661
INSAT-3DR               
1 41752U 16054A   26171.40667204 -.00000081  00000+0  00000+0 0  9999
2 41752   0.1148  86.2468 0010425 187.4441 215.2920  1.00271300 35856
INSAT-3DS               
1 58990U 24033A   26171.40823205 -.00000160  00000+0  00000+0 0  9990
2 58990   0.0479 106.3313 0001171 331.3573  59.9873  1.00271082 47109
IONOSFERA-M 1           
1 61735U 24199A   26171.42878397  .00000023  00000+0  29904-4 0  9994
2 61735  98.7170  44.5668 0002042 106.2287 253.9115 14.22754851128166
IONOSFERA-M 2           
1 61736U 24199B   26171.39274542  .00000024  00000+0  30228-4 0  9995
2 61736  98.7169  44.4417 0000914  38.0352 322.0890 14.22758106131289
IONOSFERA-M 3           
1 64876U 25155A   26172.46914425  .00000020  00000+0  28665-4 0  9994
2 64876  98.6033 134.2664 0001275 149.5064 210.6188 14.21487012 47010
IONOSFERA-M 4           
1 64877U 25155B   26172.50397899  .00000039  00000+0  37490-4 0  9996
2 64877  98.6032 134.2177 0001208 118.6135 241.5164 14.21489319 47010
